STARLINK-36871          
1 68023U 26040J   26082.16668981 -.00153043  00000+0 -10431-2 0  9992
2 68023  97.2864  31.2845 0001455 123.8198  12.6593 15.75200736  4597
STARLINK-36891          
1 68024U 26040K   26082.16668981 -.00033864  00000+0 -22757-3 0  9996
2 68024  97.2863  31.2866 0001531  94.1657  46.3134 15.75137632  4594
STARLINK-36378          
1 68025U 26040L   26082.16668981 -.00032234  00000+0 -21650-3 0  9998
2 68025  97.2856  31.2937 0001417  83.7634  64.7194 15.75142358  4544
STARLINK-36884          
1 68026U 26040M   26082.16668981 -.00032774  00000+0 -22020-3 0  9990
2 68026  97.2860  31.2910 0001248  81.8707  64.6121 15.75137701  4593
STARLINK-36940          
1 68027U 26040N   26082.16668981 -.00010731  00000+0 -71293-4 0  9997
2 68027  97.2845  31.3193 0001805 131.6636  64.8070 15.75147030  4697
STARLINK-36253          
1 68028U 26040P   26082.16668981 -.01821837  00000+0 -29798-1 0  9996
2 68028  97.2845  30.9932 0001921  94.4240  64.0653 15.55754857  4698
STARLINK-36944          
1 68029U 26040Q   26082.16668981 -.00141291  00000+0 -96192-3 0  9999
2 68029  97.2863  31.2911 0001460  89.9974  62.4760 15.75194593  4598
STARLINK-36942          
1 68030U 26040R   26082.16668981 -.00053595  00000+0 -36120-3 0  9995
2 68030  97.2856  31.2976 0001120 109.6663  46.8159 15.75158982  4591
STARLINK-36913          
1 68031U 26040S   26082.16668981 -.00065312  00000+0 -44111-3 0  9995
2 68031  97.2854  31.2984 0001671 109.6442  50.8295 15.75149775  4591
STARLINK-36935          
1 68032U 26040T   26082.16668981 -.00140237  00000+0 -95442-3 0  9999
2 68032  97.2853  31.3125 0001675 115.4429  73.0238 15.75198680  4697
STARLINK-36947          
1 68033U 26040U   26082.16668981  .00089832  00000+0  59944-3 0  9998
2 68033  97.2854  31.3013 0001593  87.6897  76.7961 15.75088343  4599
STARLINK-36939          
1 68034U 26040V   26082.16668981  .00061916  00000+0  41402-3 0  9992
2 68034  97.2843  31.3100 0002398  99.7078  80.7304 15.75129598  4598
STARLINK-36943          
1 68035U 26040W   26082.16668981  .00109350  00000+0  72793-3 0  9995
2 68035  97.2847  31.3153 0001925 110.8809  75.5976 15.75084663  4649
STARLINK-36906          
1 68036U 26040X   26082.16668981 -.00088871  00000+0 -60201-3 0  9993
2 68036  97.2846  31.3078 0001346 113.3375  63.1382 15.75157674  4599
STARLINK-36388          
1 68037U 26040Y   26082.16668981 -.00038558  00000+0 -25926-3 0  9996
2 68037  97.2848  31.3120 0001302 122.5395  61.9344 15.75149258  4544
STARLINK-36895          
1 68038U 26040Z   26082.16668981 -.00118997  00000+0 -80848-3 0  9997
2 68038  97.2856  31.3030 0001711 122.5336  49.9398 15.75177300  4592
