[{"OBJECT_NAME":"STARLINK-36871","OBJECT_ID":"2026-040J","EPOCH":"2026-03-23T04:00:01.999584","MEAN_MOTION":15.75200736,"ECCENTRICITY":0.00014552,"INCLINATION":97.2864,"RA_OF_ASC_NODE":31.2845,"ARG_OF_PERICENTER":123.8198,"MEAN_ANOMALY":12.6593,"EPHEMERIS_TYPE":0,"CLASSIFICATION_TYPE":"U","NORAD_CAT_ID":68023,"ELEMENT_SET_NO":999,"REV_AT_EPOCH":459,"BSTAR":-0.0010431415,"MEAN_MOTION_DOT":-0.00153043,"MEAN_MOTION_DDOT":0},{"OBJECT_NAME":"STARLINK-36891","OBJECT_ID":"2026-040K","EPOCH":"2026-03-23T04:00:01.999584","MEAN_MOTION":15.75137632,"ECCENTRICITY":0.00015314,"INCLINATION":97.2863,"RA_OF_ASC_NODE":31.2866,"ARG_OF_PERICENTER":94.1657,"MEAN_ANOMALY":46.3134,"EPHEMERIS_TYPE":0,"CLASSIFICATION_TYPE":"U","NORAD_CAT_ID":68024,"ELEMENT_SET_NO":999,"REV_AT_EPOCH":459,"BSTAR":-0.00022757417,"MEAN_MOTION_DOT":-0.00033864,"MEAN_MOTION_DDOT":0},{"OBJECT_NAME":"STARLINK-36378","OBJECT_ID":"2026-040L","EPOCH":"2026-03-23T04:00:01.999584","MEAN_MOTION":15.75142358,"ECCENTRICITY":0.00014175,"INCLINATION":97.2856,"RA_OF_ASC_NODE":31.2937,"ARG_OF_PERICENTER":83.7634,"MEAN_ANOMALY":64.7194,"EPHEMERIS_TYPE":0,"CLASSIFICATION_TYPE":"U","NORAD_CAT_ID":68025,"ELEMENT_SET_NO":999,"REV_AT_EPOCH":454,"BSTAR":-0.00021649553,"MEAN_MOTION_DOT":-0.00032234,"MEAN_MOTION_DDOT":0},{"OBJECT_NAME":"STARLINK-36884","OBJECT_ID":"2026-040M","EPOCH":"2026-03-23T04:00:01.999584","MEAN_MOTION":15.75137701,"ECCENTRICITY":0.00012485,"INCLINATION":97.286,"RA_OF_ASC_NODE":31.291,"ARG_OF_PERICENTER":81.8707,"MEAN_ANOMALY":64.6121,"EPHEMERIS_TYPE":0,"CLASSIFICATION_TYPE":"U","NORAD_CAT_ID":68026,"ELEMENT_SET_NO":999,"REV_AT_EPOCH":459,"BSTAR":-0.00022020201,"MEAN_MOTION_DOT":-0.00032774,"MEAN_MOTION_DDOT":0},{"OBJECT_NAME":"STARLINK-36940","OBJECT_ID":"2026-040N","EPOCH":"2026-03-23T04:00:01.999584","MEAN_MOTION":15.7514703,"ECCENTRICITY":0.00018055,"INCLINATION":97.2845,"RA_OF_ASC_NODE":31.3193,"ARG_OF_PERICENTER":131.6636,"MEAN_ANOMALY":64.807,"EPHEMERIS_TYPE":0,"CLASSIFICATION_TYPE":"U","NORAD_CAT_ID":68027,"ELEMENT_SET_NO":999,"REV_AT_EPOCH":469,"BSTAR":-7.1293279e-5,"MEAN_MOTION_DOT":-0.00010731,"MEAN_MOTION_DDOT":0},{"OBJECT_NAME":"STARLINK-36253","OBJECT_ID":"2026-040P","EPOCH":"2026-03-23T04:00:01.999584","MEAN_MOTION":15.55754857,"ECCENTRICITY":0.00019211,"INCLINATION":97.2845,"RA_OF_ASC_NODE":30.9932,"ARG_OF_PERICENTER":94.424,"MEAN_ANOMALY":64.0653,"EPHEMERIS_TYPE":0,"CLASSIFICATION_TYPE":"U","NORAD_CAT_ID":68028,"ELEMENT_SET_NO":999,"REV_AT_EPOCH":469,"BSTAR":-0.029797685,"MEAN_MOTION_DOT":-0.01821837,"MEAN_MOTION_DDOT":0},{"OBJECT_NAME":"STARLINK-36944","OBJECT_ID":"2026-040Q","EPOCH":"2026-03-23T04:00:01.999584","MEAN_MOTION":15.75194593,"ECCENTRICITY":0.00014605,"INCLINATION":97.2863,"RA_OF_ASC_NODE":31.2911,"ARG_OF_PERICENTER":89.9974,"MEAN_ANOMALY":62.476,"EPHEMERIS_TYPE":0,"CLASSIFICATION_TYPE":"U","NORAD_CAT_ID":68029,"ELEMENT_SET_NO":999,"REV_AT_EPOCH":459,"BSTAR":-0.00096191876,"MEAN_MOTION_DOT":-0.00141291,"MEAN_MOTION_DDOT":0},{"OBJECT_NAME":"STARLINK-36942","OBJECT_ID":"2026-040R","EPOCH":"2026-03-23T04:00:01.999584","MEAN_MOTION":15.75158982,"ECCENTRICITY":0.00011202,"INCLINATION":97.2856,"RA_OF_ASC_NODE":31.2976,"ARG_OF_PERICENTER":109.6663,"MEAN_ANOMALY":46.8159,"EPHEMERIS_TYPE":0,"CLASSIFICATION_TYPE":"U","NORAD_CAT_ID":68030,"ELEMENT_SET_NO":999,"REV_AT_EPOCH":459,"BSTAR":-0.00036119651,"MEAN_MOTION_DOT":-0.00053595,"MEAN_MOTION_DDOT":0},{"OBJECT_NAME":"STARLINK-36913","OBJECT_ID":"2026-040S","EPOCH":"2026-03-23T04:00:01.999584","MEAN_MOTION":15.75149775,"ECCENTRICITY":0.00016712,"INCLINATION":97.2854,"RA_OF_ASC_NODE":31.2984,"ARG_OF_PERICENTER":109.6442,"MEAN_ANOMALY":50.8295,"EPHEMERIS_TYPE":0,"CLASSIFICATION_TYPE":"U","NORAD_CAT_ID":68031,"ELEMENT_SET_NO":999,"REV_AT_EPOCH":459,"BSTAR":-0.00044110994,"MEAN_MOTION_DOT":-0.00065312,"MEAN_MOTION_DDOT":0},{"OBJECT_NAME":"STARLINK-36935","OBJECT_ID":"2026-040T","EPOCH":"2026-03-23T04:00:01.999584","MEAN_MOTION":15.7519868,"ECCENTRICITY":0.00016756,"INCLINATION":97.2853,"RA_OF_ASC_NODE":31.3125,"ARG_OF_PERICENTER":115.4429,"MEAN_ANOMALY":73.0238,"EPHEMERIS_TYPE":0,"CLASSIFICATION_TYPE":"U","NORAD_CAT_ID":68032,"ELEMENT_SET_NO":999,"REV_AT_EPOCH":469,"BSTAR":-0.00095441916,"MEAN_MOTION_DOT":-0.00140237,"MEAN_MOTION_DDOT":0},{"OBJECT_NAME":"STARLINK-36947","OBJECT_ID":"2026-040U","EPOCH":"2026-03-23T04:00:01.999584","MEAN_MOTION":15.75088343,"ECCENTRICITY":0.00015933,"INCLINATION":97.2854,"RA_OF_ASC_NODE":31.3013,"ARG_OF_PERICENTER":87.6897,"MEAN_ANOMALY":76.7961,"EPHEMERIS_TYPE":0,"CLASSIFICATION_TYPE":"U","NORAD_CAT_ID":68033,"ELEMENT_SET_NO":999,"REV_AT_EPOCH":459,"BSTAR":0.00059944076,"MEAN_MOTION_DOT":0.00089832,"MEAN_MOTION_DDOT":0},{"OBJECT_NAME":"STARLINK-36939","OBJECT_ID":"2026-040V","EPOCH":"2026-03-23T04:00:01.999584","MEAN_MOTION":15.75129598,"ECCENTRICITY":0.00023988,"INCLINATION":97.2843,"RA_OF_ASC_NODE":31.31,"ARG_OF_PERICENTER":99.7078,"MEAN_ANOMALY":80.7304,"EPHEMERIS_TYPE":0,"CLASSIFICATION_TYPE":"U","NORAD_CAT_ID":68034,"ELEMENT_SET_NO":999,"REV_AT_EPOCH":459,"BSTAR":0.00041401649,"MEAN_MOTION_DOT":0.00061916,"MEAN_MOTION_DDOT":0},{"OBJECT_NAME":"STARLINK-36943","OBJECT_ID":"2026-040W","EPOCH":"2026-03-23T04:00:01.999584","MEAN_MOTION":15.75084663,"ECCENTRICITY":0.00019259,"INCLINATION":97.2847,"RA_OF_ASC_NODE":31.3153,"ARG_OF_PERICENTER":110.8809,"MEAN_ANOMALY":75.5976,"EPHEMERIS_TYPE":0,"CLASSIFICATION_TYPE":"U","NORAD_CAT_ID":68035,"ELEMENT_SET_NO":999,"REV_AT_EPOCH":464,"BSTAR":0.00072792743,"MEAN_MOTION_DOT":0.0010935,"MEAN_MOTION_DDOT":0},{"OBJECT_NAME":"STARLINK-36906","OBJECT_ID":"2026-040X","EPOCH":"2026-03-23T04:00:01.999584","MEAN_MOTION":15.75157674,"ECCENTRICITY":0.00013467,"INCLINATION":97.2846,"RA_OF_ASC_NODE":31.3078,"ARG_OF_PERICENTER":113.3375,"MEAN_ANOMALY":63.1382,"EPHEMERIS_TYPE":0,"CLASSIFICATION_TYPE":"U","NORAD_CAT_ID":68036,"ELEMENT_SET_NO":999,"REV_AT_EPOCH":459,"BSTAR":-0.00060200997,"MEAN_MOTION_DOT":-0.00088871,"MEAN_MOTION_DDOT":0},{"OBJECT_NAME":"STARLINK-36388","OBJECT_ID":"2026-040Y","EPOCH":"2026-03-23T04:00:01.999584","MEAN_MOTION":15.75149258,"ECCENTRICITY":0.00013029,"INCLINATION":97.2848,"RA_OF_ASC_NODE":31.312,"ARG_OF_PERICENTER":122.5395,"MEAN_ANOMALY":61.9344,"EPHEMERIS_TYPE":0,"CLASSIFICATION_TYPE":"U","NORAD_CAT_ID":68037,"ELEMENT_SET_NO":999,"REV_AT_EPOCH":454,"BSTAR":-0.00025926434,"MEAN_MOTION_DOT":-0.00038558,"MEAN_MOTION_DDOT":0},{"OBJECT_NAME":"STARLINK-36895","OBJECT_ID":"2026-040Z","EPOCH":"2026-03-23T04:00:01.999584","MEAN_MOTION":15.751773,"ECCENTRICITY":0.0001711,"INCLINATION":97.2856,"RA_OF_ASC_NODE":31.303,"ARG_OF_PERICENTER":122.5336,"MEAN_ANOMALY":49.9398,"EPHEMERIS_TYPE":0,"CLASSIFICATION_TYPE":"U","NORAD_CAT_ID":68038,"ELEMENT_SET_NO":999,"REV_AT_EPOCH":459,"BSTAR":-0.00080847998,"MEAN_MOTION_DOT":-0.00118997,"MEAN_MOTION_DDOT":0}]
